SL-12 R/B(2)            
1 15772U 85042D   17345.92048012  .00000069  00000-0  53087-4 0  9999
2 15772  71.1081 320.6885 0033528 129.3422 295.8177 14.21216718686707
